CZ-2C R/B               
1 54039U 22132E   26025.52039016  .00044318  00000+0  58587-3 0  9997
2 54039  97.2956  27.6604 0016647 247.9791 111.9697 15.58056601183642
GSLV R/B                
1 54149U 22138AN  26025.46031781  .00004609  00000+0  40271-3 0  9999
2 54149  87.3846 180.8297 0019905 312.9946  46.9616 14.96424515177462
XRISM                   
1 57800U 23137A   26025.57643411  .00008635  00000+0  49945-3 0  9997
2 57800  31.0009 202.3993 0008048 327.0134  33.0001 15.10920839131261
ACS3                    
1 59588U 24077B   26025.62676184  .00027734  00000+0  23114-1 0  9994
2 59588  97.2323 336.4152 0049562 219.1179 140.6397 13.87746316 88229
SZ-21 MODULE            
1 66515U 25246C   26025.60489789  .00040571  00000+0  39793-3 0  9998
2 66515  41.4752 107.9254 0003260 237.6166 122.4359 15.65292049 11313
